[{"OBJECT_NAME":"STARLINK-3112","OBJECT_ID":"2021-104P","EPOCH":"2026-03-09T17:36:56.325600","MEAN_MOTION":15.08839679,"ECCENTRICITY":0.00011236,"INCLINATION":53.216,"RA_OF_ASC_NODE":228.7282,"ARG_OF_PERICENTER":88.019,"MEAN_ANOMALY":272.0931,"EPHEMERIS_TYPE":0,"CLASSIFICATION_TYPE":"U","NORAD_CAT_ID":49421,"ELEMENT_SET_NO":999,"REV_AT_EPOCH":23863,"BSTAR":-2.9927261e-5,"MEAN_MOTION_DOT":-7.64e-6,"MEAN_MOTION_DDOT":0},{"OBJECT_NAME":"STRIX-2","OBJECT_ID":"2024-248A","EPOCH":"2026-03-09T23:00:54.819648","MEAN_MOTION":15.07630986,"ECCENTRICITY":0.00151844,"INCLINATION":97.6197,"RA_OF_ASC_NODE":25.3276,"ARG_OF_PERICENTER":319.5195,"MEAN_ANOMALY":40.4902,"EPHEMERIS_TYPE":0,"CLASSIFICATION_TYPE":"U","NORAD_CAT_ID":62406,"ELEMENT_SET_NO":999,"REV_AT_EPOCH":6663,"BSTAR":0.00066021351,"MEAN_MOTION_DOT":0.00010025,"MEAN_MOTION_DDOT":0}]
